{
  "type": "FeatureCollection",
  "features": [
    {
      "type": "Feature",
      "properties": {
        "norad_id": 46277,
        "name": "NEMO-HD",
        "group": "resource",
        "lat": -47.86952183860866,
        "lon": -129.3309805787874,
        "alt_km": 451.980687340616,
        "timestamp": "2025-12-25T19:00:39.005993+00:00",
        "meta_object_name": "NEMO-HD",
        "meta_object_id": "2020-061F",
        "meta_epoch": "2025-12-25T07:06:38.947968",
        "meta_mean_motion": 15.40581343,
        "meta_eccentricity": 0.00010532,
        "meta_inclination": 97.2188,
        "meta_ra_of_asc_node": 58.2348,
        "meta_arg_of_pericenter": 53.0867,
        "meta_mean_anomaly": 307.0476,
        "meta_ephemeris_type": 0,
        "meta_classification_type": "U",
        "meta_norad_cat_id": 46277,
        "meta_element_set_no": 999,
        "meta_rev_at_epoch": 29517,
        "meta_bstar": 0.00027212281,
        "meta_mean_motion_dot": 0.00010987,
        "meta_mean_motion_ddot": 0,
        "tle_line1": "1 46277U 20061F   25359.29628412  .00010987  00000+0  27212-3 0  9994",
        "tle_line2": "2 46277  97.2188  58.2348 0001053  53.0867 307.0476 15.40581343295176"
      },
      "geometry": {
        "type": "Point",
        "coordinates": [
          -129.3309805787874,
          -47.86952183860866
        ]
      }
    },
    {
      "type": "Feature",
      "properties": {
        "norad_id": 46984,
        "name": "SENTINEL-6A",
        "group": "resource",
        "lat": 16.093605494579634,
        "lon": -52.17208207652061,
        "alt_km": 1339.060799828534,
        "timestamp": "2025-12-25T19:00:39.006003+00:00",
        "meta_object_name": "SENTINEL-6A",
        "meta_object_id": "2020-086A",
        "meta_epoch": "2025-12-24T15:55:56.858592",
        "meta_mean_motion": 12.80930713,
        "meta_eccentricity": 0.00077606,
        "meta_inclination": 66.0399,
        "meta_ra_of_asc_node": 137.5413,
        "meta_arg_of_pericenter": 269.4223,
        "meta_mean_anomaly": 90.5903,
        "meta_ephemeris_type": 0,
        "meta_classification_type": "U",
        "meta_norad_cat_id": 46984,
        "meta_element_set_no": 999,
        "meta_rev_at_epoch": 23797,
        "meta_bstar": -9.062628e-06,
        "meta_mean_motion_dot": -6.3e-07,
        "meta_mean_motion_ddot": 0,
        "tle_line1": "1 46984U 20086A   25358.66385253 -.00000063  00000+0 -90626-5 0  9996",
        "tle_line2": "2 46984  66.0399 137.5413 0007760 269.4223  90.5903 12.80930713237976"
      },
      "geometry": {
        "type": "Point",
        "coordinates": [
          -52.17208207652061,
          16.093605494579634
        ]
      }
    },
    {
      "type": "Feature",
      "properties": {
        "norad_id": 48079,
        "name": "GAOFEN-12 02",
        "group": "resource",
        "lat": 45.40821010259161,
        "lon": -14.450496694024121,
        "alt_km": 621.0570441550826,
        "timestamp": "2025-12-25T19:00:39.006013+00:00",
        "meta_object_name": "GAOFEN-12 02",
        "meta_object_id": "2021-026A",
        "meta_epoch": "2025-12-25T07:27:03.616128",
        "meta_mean_motion": 14.80689488,
        "meta_eccentricity": 0.000355,
        "meta_inclination": 97.9857,
        "meta_ra_of_asc_node": 353.2566,
        "meta_arg_of_pericenter": 75.9021,
        "meta_mean_anomaly": 284.2586,
        "meta_ephemeris_type": 0,
        "meta_classification_type": "U",
        "meta_norad_cat_id": 48079,
        "meta_element_set_no": 999,
        "meta_rev_at_epoch": 25603,
        "meta_bstar": 7.375321e-05,
        "meta_mean_motion_dot": 5.14e-06,
        "meta_mean_motion_ddot": 0,
        "tle_line1": "1 48079U 21026A   25359.31045852  .00000514  00000+0  73753-4 0  9999",
        "tle_line2": "2 48079  97.9857 353.2566 0003550  75.9021 284.2586 14.80689488256039"
      },
      "geometry": {
        "type": "Point",
        "coordinates": [
          -14.450496694024121,
          45.40821010259161
        ]
      }
    },
    {
      "type": "Feature",
      "properties": {
        "norad_id": 48268,
        "name": "PLEIADES NEO 3",
        "group": "resource",
        "lat": 20.272304889407735,
        "lon": -105.01617719852858,
        "alt_km": 623.8415874833636,
        "timestamp": "2025-12-25T19:00:39.006023+00:00",
        "meta_object_name": "PLEIADES NEO 3",
        "meta_object_id": "2021-034A",
        "meta_epoch": "2025-12-25T06:56:54.007008",
        "meta_mean_motion": 14.81671515,
        "meta_eccentricity": 0.00013434,
        "meta_inclination": 97.8943,
        "meta_ra_of_asc_node": 71.5508,
        "meta_arg_of_pericenter": 87.5011,
        "meta_mean_anomaly": 272.6355,
        "meta_ephemeris_type": 0,
        "meta_classification_type": "U",
        "meta_norad_cat_id": 48268,
        "meta_element_set_no": 999,
        "meta_rev_at_epoch": 25190,
        "meta_bstar": -7.754159e-06,
        "meta_mean_motion_dot": -1.13e-06,
        "meta_mean_motion_ddot": 0,
        "tle_line1": "1 48268U 21034A   25359.28951397 -.00000113  00000+0 -77542-5 0  9992",
        "tle_line2": "2 48268  97.8943  71.5508 0001343  87.5011 272.6355 14.81671515251905"
      },
      "geometry": {
        "type": "Point",
        "coordinates": [
          -105.01617719852858,
          20.272304889407735
        ]
      }
    },
    {
      "type": "Feature",
      "properties": {
        "norad_id": 49070,
        "name": "PLEIADES NEO 4",
        "group": "resource",
        "lat": -20.449931778976566,
        "lon": 75.00778253644316,
        "alt_km": 629.6163584468904,
        "timestamp": "2025-12-25T19:00:39.006036+00:00",
        "meta_object_name": "PLEIADES NEO 4",
        "meta_object_id": "2021-073E",
        "meta_epoch": "2025-12-25T06:08:15.448704",
        "meta_mean_motion": 14.81674507,
        "meta_eccentricity": 0.00013839,
        "meta_inclination": 97.8945,
        "meta_ra_of_asc_node": 71.5133,
        "meta_arg_of_pericenter": 90.331,
        "meta_mean_anomaly": 269.8061,
        "meta_ephemeris_type": 0,
        "meta_classification_type": "U",
        "meta_norad_cat_id": 49070,
        "meta_element_set_no": 999,
        "meta_rev_at_epoch": 23561,
        "meta_bstar": -2.0348261e-05,
        "meta_mean_motion_dot": -2.12e-06,
        "meta_mean_motion_ddot": 0,
        "tle_line1": "1 49070U 21073E   25359.25573436 -.00000212  00000+0 -20348-4 0  9999",
        "tle_line2": "2 49070  97.8945  71.5133 0001383  90.3310 269.8061 14.81674507235617"
      },
      "geometry": {
        "type": "Point",
        "coordinates": [
          75.00778253644316,
          -20.449931778976566
        ]
      }
    },
    {
      "type": "Feature",
      "properties": {
        "norad_id": 49260,
        "name": "LANDSAT 9",
        "group": "resource",
        "lat": -74.10934004565773,
        "lon": 98.17728301637854,
        "alt_km": 710.5951342950757,
        "timestamp": "2025-12-25T19:00:39.006047+00:00",
        "meta_object_name": "LANDSAT 9",
        "meta_object_id": "2021-088A",
        "meta_epoch": "2025-12-25T04:31:41.451744",
        "meta_mean_motion": 14.57110378,
        "meta_eccentricity": 0.00011123,
        "meta_inclination": 98.2077,
        "meta_ra_of_asc_node": 67.1183,
        "meta_arg_of_pericenter": 93.3814,
        "meta_mean_anomaly": 266.7512,
        "meta_ephemeris_type": 0,
        "meta_classification_type": "U",
        "meta_norad_cat_id": 49260,
        "meta_element_set_no": 999,
        "meta_rev_at_epoch": 22566,
        "meta_bstar": 0.00010890709,
        "meta_mean_motion_dot": 4.45e-06,
        "meta_mean_motion_ddot": 0,
        "tle_line1": "1 49260U 21088A   25359.18867421  .00000445  00000+0  10891-3 0  9995",
        "tle_line2": "2 49260  98.2077  67.1183 0001112  93.3814 266.7512 14.57110378225662"
      },
      "geometry": {
        "type": "Point",
        "coordinates": [
          98.17728301637854,
          -74.10934004565773
        ]
      }
    },
    {
      "type": "Feature",
      "properties": {
        "norad_id": 51444,
        "name": "CSG-2",
        "group": "resource",
        "lat": 34.158197735500345,
        "lon": 175.5252527932154,
        "alt_km": 619.6764091388523,
        "timestamp": "2025-12-25T19:00:39.006058+00:00",
        "meta_object_name": "CSG-2",
        "meta_object_id": "2022-008A",
        "meta_epoch": "2025-12-25T05:53:36.720960",
        "meta_mean_motion": 14.82153798,
        "meta_eccentricity": 0.0001449,
        "meta_inclination": 97.8805,
        "meta_ra_of_asc_node": 180.3799,
        "meta_arg_of_pericenter": 83.3954,
        "meta_mean_anomaly": 276.7425,
        "meta_ephemeris_type": 0,
        "meta_classification_type": "U",
        "meta_norad_cat_id": 51444,
        "meta_element_set_no": 999,
        "meta_rev_at_epoch": 21082,
        "meta_bstar": -4.77893e-06,
        "meta_mean_motion_dot": -9e-07,
        "meta_mean_motion_ddot": 0,
        "tle_line1": "1 51444U 22008A   25359.24556390 -.00000090  00000+0 -47789-5 0  9998",
        "tle_line2": "2 51444  97.8805 180.3799 0001449  83.3954 276.7425 14.82153798210828"
      },
      "geometry": {
        "type": "Point",
        "coordinates": [
          175.5252527932154,
          34.158197735500345
        ]
      }
    }
  ]
}